orbcomm-fm06
1 25118U 97084G   26151.02351935  .00001503  00000+0  44405-3 0  9996
2 25118  45.0126 135.3359 0002277 277.8641 127.0469 14.47513603491905
orbcomm-fm19
1 25415U 98046C   26150.88766934  .00001281  00000+0  45283-3 0  9995
2 25415  44.9949 325.7898 0003677 211.2722 302.2850 14.39461941454285
orbcomm-fm32
1 25982U 99065C   26150.70279786  .00000790  00000+0  31079-3 0  9993
2 25982  45.0153 255.9994 0005564 312.0063  48.0311 14.37105877384571
orbcomm-fm114
1 41179U 15081A   26151.13065073  .00000701  00000+0  18462-3 0  9998
2 41179  47.0048  82.6433 0001453 124.2878 235.8145 14.58835978555267
orbcomm-fm112
1 41184U 15081F   26150.95291740  .00000908  00000+0  22825-3 0  9992
2 41184  47.0005 351.7412 0002650 134.8892 225.2209 14.58876077556435
orbcomm-fm108
1 41187U 15081J   26150.96005891  .00000919  00000+0  23076-3 0  9997
2 41187  47.0050 263.6458 0002051 140.1412 219.9625 14.58846254557563
globalstar-m069
1 31573U 07020C   26150.89542205 -.00000087  00000+0  52306-4 0  9992
2 31573  52.0041 301.0681 0002624 113.0514  53.8554 12.23470627876680
globalstar-m079
1 37188U 10054A   26151.19461130 -.00000096  00000+0  40967-4 0  9992
2 37188  52.0011 160.3979 0000291 330.7280 107.5322 12.62265957720406
globalstar-m075
1 37192U 10054E   26151.17194564 -.00000063  00000+0  22577-3 0  9999
2 37192  51.9930 202.0014 0000261 154.0782 241.2316 12.62267306719793
globalstar-m088
1 37740U 11033B   26150.94987904 -.00000088  00000+0  88100-4 0  9990
2 37740  52.0233 331.4024 0000893 100.4727  63.5715 12.62268383686318
globalstar-m089
1 37744U 11033F   26151.06047538 -.00000057  00000+0  26097-3 0  9990
2 37744  51.9912 201.9515 0000459 111.5874 256.8248 12.62266827688629
globalstar-m082
1 38042U 11080C   26150.83844670 -.00000079  00000+0  13983-3 0  9994
2 38042  52.0098  27.3082 0000476  79.7453 359.2785 12.62269673667403
globalstar-m097
1 39072U 13005A   26150.82131479 -.00000104  00000+0 -27501-5 0  9995
2 39072  52.0055 296.1975 0000570 112.9121 247.1806 12.62251281614715
globalstar-m096
1 39075U 13005D   26151.20406219 -.00000074  00000+0  16549-3 0  9991
2 39075  52.0073 251.2962 0000384 143.9783 216.1110 12.62265061615241
starlink-1008
1 44714U 19074B   26151.21337775  .00088051  00000+0  16563-2 0  9995
2 44714  53.1512 149.8655 0002987  57.7638 302.3659 15.47837323361583
starlink-3285
1 50181U 21125AB  26150.67577348 -.00005682  00000+0 -33908-3 0  9995
2 50181  53.1957 241.0676 0001421 124.4506 235.6621 15.08848527248987
starlink-4175
1 53283U 22086AT  26151.20519632 -.00001917  00000+0 -10239-3 0  9999
2 53283  53.1964 173.6812 0001188 135.1844 224.9244 15.08831770213657
starlink-5546
1 55632U 23021E   26150.97582005  .00001159  00000+0  10494-3 0  9995
2 55632  69.9994 356.9925 0002792 271.7306  88.3533 14.98324295180628
starlink-30264
1 57534U 23115P   26150.92559765  .00001199  00000+0  53084-4 0  9991
2 57534  43.0034 104.4702 0001168 273.7778  86.2940 15.27574295157936
starlink-31355
1 58978U 24031P   26150.73733454 -.00003268  00000+0 -98332-4 0  9996
2 58978  53.1607 275.6893 0001136  97.7769 262.3361 15.30174879129074
starlink-11147-dtc
1 60301U 24133A   26151.15736138 -.00000667  00000+0 -65042-6 0  9995
2 60301  53.1583  99.9064 0000745  95.5386 264.5717 15.69704991106680
starlink-32789
1 62529U 25004U   26150.92169182  .00020265  00000+0  74314-3 0  9993
2 62529  42.9948 115.5759 0000747 277.2102  82.8665 15.27613746 79030
starlink-34020
1 63939U 25098P   26151.16668980  .00044985  00000+0  37558-2 0  9992
2 63939  70.0023  66.3988 0003144 269.4958 293.4547 14.98309369  5707
starlink-35001
1 65280U 25184H   26151.10906068  .00008465  00000+0  58986-3 0  9997
2 65280  97.4215 203.4204 0002734 133.2235 226.9221 15.05660286 43708
starlink-35132
1 66461U 25262F   26151.17623375  .00037534  00000+0  13655-2 0  9992
2 66461  43.0002 190.1600 0001646 258.0783 101.9884 15.27604228 31520
starlink-36657
1 67835U 26033Q   26150.40032419  .00021863  00000+0  80136-3 0  9990
2 67835  43.0001 165.3191 0002140 271.6873  88.3733 15.27591526 17177
iridium-106
1 41917U 17003A   26150.93243272  .00000010  00000+0 -35432-5 0  9992
2 41917  86.3956  95.7692 0001913  76.8656 283.2753 14.34217609490731
iridium-113
1 42803U 17039A   26151.00753733  .00000079  00000+0  21181-4 0  9992
2 42803  86.3961 329.3629 0002342  90.9870 269.1594 14.34218349468722
iridium-133
1 42955U 17061A   26151.14756522  .00000302  00000+0  10059-3 0  9999
2 42955  86.3985  32.3910 0002170  84.0701 276.0742 14.34222030452330
iridium-135
1 43070U 17083A   26150.91874148  .00000088  00000+0  24431-4 0  9992
2 43070  86.3956 329.2379 0002170  89.9735 270.1710 14.34218003441675
iridium-144
1 43249U 18030A   26150.92800176  .00000091  00000+0  25530-4 0  9999
2 43249  86.3943 297.6187 0002050  91.8808 268.2623 14.34218041427660
iridium-161
1 43478U 18047C   26150.97494731  .00000377  00000+0  10604-3 0  9994
2 43478  86.4477  95.6673 0002446  90.3385 269.8096 14.43279434422654
iridium-154
1 43574U 18061F   26151.20808220  .00000099  00000+0  28346-4 0  9990
2 43574  86.3972  63.9047 0002061  84.9180 275.2251 14.34216845410971
iridium-172
1 43927U 19002F   26151.08707090  .00000092  00000+0  25634-4 0  9997
2 43927  86.3977   0.7217 0002234  88.9044 271.2408 14.34217625386510
oneweb-0012
1 44057U 19010A   26151.15386088  .00000044  00000+0  82363-4 0  9998
2 44057  87.9108 232.1669 0002246  89.2596 270.8792 13.16594234349321
oneweb-0121
1 47267U 20100K   26151.06361250 -.00000189  00000+0 -56209-3 0  9991
2 47267  87.8954 354.0620 0001954  79.4519 280.6829 13.12443797262391
oneweb-0182
1 48228U 21031U   26150.82730077  .00000023  00000+0  26445-4 0  9998
2 48228  87.8947 293.1673 0002072  99.0220 261.1144 13.14501990246153
oneweb-0279
1 48997U 21060AG  26150.64246515 -.00000017  00000+0 -77659-4 0  9990
2 48997  87.9107 232.2555 0001867  93.8702 266.2642 13.16593404237316
oneweb-0360
1 49286U 21090H   26150.81906268 -.00000007  00000+0 -49426-4 0  9992
2 49286  87.9182 277.9027 0001987 104.5234 255.6120 13.20774126227559
oneweb-0444
1 51638U 22012S   26151.14464458  .00000781  00000+0  22011-2 0  9994
2 51638  87.8840  39.6611 0001951  75.5170 284.6174 13.10372289207105
oneweb-0607
1 54671U 22166AF  26150.79168419 -.00000061  00000+0 -17949-3 0  9990
2 54671  87.9263 247.4303 0002016  95.1405 264.9959 13.21827413169244
oneweb-0666
1 55826U 23029AG  26150.91164637 -.00000004  00000+0 -41136-4 0  9997
2 55826  87.9170 277.9178 0002310 114.8953 245.2420 13.20769315158873
skysat-a
1 39418U 13066C   26151.06122243  .00003899  00000+0  22405-3 0  9990
2 39418  97.3826 201.0041 0021799  18.3442 341.8571 15.12870677685899
flock-4q-36
1 58274U 23174U   26151.03904421  .00045887  00000+0  64364-3 0  9998
2 58274  97.3862 242.8306 0007162 193.7661 166.3400 15.56592865143164
flock-4be-7
1 60481U 24149P   26151.19373117  .00032816  00000+0  83386-3 0  9996
2 60481  97.3764 234.1272 0001670 344.2785  15.8409 15.39565834 99638
flock-4be-13
1 60512U 24149AW  26151.21504228  .00020511  00000+0  49229-3 0  9990
2 60512  97.3725 235.4563 0003172 348.1574  11.9598 15.41393995 99754
flock-4g-26
1 62633U 25009AA  26151.11187311  .00015938  00000+0  56702-3 0  9992
2 62633  97.4022 233.1843 0003402  31.1653 328.9788 15.29052510 76309
flock-4g-1
1 62666U 25009BK  26151.18572205  .00017440  00000+0  61581-3 0  9996
2 62666  97.4029 233.2608 0004663  41.6931 318.4664 15.29273089 76311
flock-4h-5
1 66708U 25276AU  26151.19489250  .00008535  00000+0  39468-3 0  9995
2 66708  97.4184 225.1694 0002021  77.8878 282.2584 15.20399017 27851
flock-4h-23
1 66726U 25276BN  26151.10778197  .00007975  00000+0  37821-3 0  9995
2 66726  97.4246 224.9747 0005780  67.5606 292.6241 15.19533002 27820
